[{"OBJECT_NAME":"STARLINK-3774","OBJECT_ID":"2022-053AA","EPOCH":"2026-03-09T11:23:59.866080","MEAN_MOTION":15.08839742,"ECCENTRICITY":0.00012661,"INCLINATION":53.2178,"RA_OF_ASC_NODE":144.8536,"ARG_OF_PERICENTER":65.5065,"MEAN_ANOMALY":294.6059,"EPHEMERIS_TYPE":0,"CLASSIFICATION_TYPE":"U","NORAD_CAT_ID":52680,"ELEMENT_SET_NO":999,"REV_AT_EPOCH":21112,"BSTAR":1.1530099e-5,"MEAN_MOTION_DOT":-1.04e-6,"MEAN_MOTION_DDOT":0},{"OBJECT_NAME":"DISKSAT D","OBJECT_ID":"2025-305C","EPOCH":"2026-03-09T13:15:42.202656","MEAN_MOTION":15.07416577,"ECCENTRICITY":0.00037124,"INCLINATION":45.0023,"RA_OF_ASC_NODE":251.6339,"ARG_OF_PERICENTER":319.2749,"MEAN_ANOMALY":40.7848,"EPHEMERIS_TYPE":0,"CLASSIFICATION_TYPE":"U","NORAD_CAT_ID":67221,"ELEMENT_SET_NO":999,"REV_AT_EPOCH":1227,"BSTAR":0.00076840651,"MEAN_MOTION_DOT":0.00011599,"MEAN_MOTION_DDOT":0}]
