STARLINK-3774           
1 52680U 22053AA  26068.47499845 -.00000104  00000+0  11530-4 0  9994
2 52680  53.2178 144.8536 0001266  65.5065 294.6059 15.08839742211121
DISKSAT D               
1 67221U 25305C   26068.55257179  .00011599  00000+0  76841-3 0  9999
2 67221  45.0023 251.6339 0003712 319.2749  40.7848 15.07416577 12277
